start=new Date('2022-07-10T00:00:00.000Z').valueOf();
sats=[{"LAUNCH_DATE":"2021-02-04","SEMIMAJOR_AXIS":"6925.351","MEAN_MOTION_DOT":"-0.00000557","CLASSIFICATION_TYPE":"U","RA_OF_ASC_NODE":"272.7190","BSTAR":"-0.00001851200000","DECAY_DATE":null,"PERIAPSIS":"545.971","CENTER_NAME":"EARTH","REV_AT_EPOCH":"7897","APOAPSIS":"548.461","REF_FRAME":"TEME","EPOCH":"2022-07-09T16:07:27.828768","INCLINATION":"53.0549","TLE_LINE2":"2 47551  53.0549 272.7190 0001798  53.0588 307.0565 15.06399138 78974","EPHEMERIS_TYPE":"0","PERIOD":"95.592","ARG_OF_PERICENTER":"53.0588","GP_ID":"207783973","MEAN_ELEMENT_THEORY":"SGP4","ECCENTRICITY":"0.00017980","SITE":"AFETR","OBJECT_ID":"2021-009D","TIME_SYSTEM":"UTC","OBJECT_TYPE":"PAYLOAD","OBJECT_NAME":"STARLINK-1938","NORAD_CAT_ID":"47551","ELEMENT_SET_NO":"999","RCS_SIZE":"LARGE","MEAN_MOTION_DDOT":"0.0000000000000","TLE_LINE1":"1 47551U 21009D   22190.67184987 -.00000557  00000-0 -18512-4 0  9998","MEAN_ANOMALY":"307.0565","FILE":"3510681","MEAN_MOTION":"15.06399138","COUNTRY_CODE":"US"},{"SEMIMAJOR_AXIS":"6925.340","LAUNCH_DATE":"2021-02-04","CLASSIFICATION_TYPE":"U","MEAN_MOTION_DOT":"-0.00000703","RA_OF_ASC_NODE":"262.9917","DECAY_DATE":null,"BSTAR":"-0.00002828600000","CENTER_NAME":"EARTH","REV_AT_EPOCH":"7910","PERIAPSIS":"546.193","REF_FRAME":"TEME","APOAPSIS":"548.218","EPHEMERIS_TYPE":"0","PERIOD":"95.592","EPOCH":"2022-07-09T14:38:33.504000","TLE_LINE2":"2 47552  53.0551 262.9917 0001462  69.1119 291.0026 15.06402785 79105","INCLINATION":"53.0551","GP_ID":"207782721","ARG_OF_PERICENTER":"69.1119","MEAN_ELEMENT_THEORY":"SGP4","ECCENTRICITY":"0.00014620","SITE":"AFETR","OBJECT_ID":"2021-009E","OBJECT_NAME":"STARLINK-1940","TIME_SYSTEM":"UTC","OBJECT_TYPE":"PAYLOAD","NORAD_CAT_ID":"47552","ELEMENT_SET_NO":"999","TLE_LINE1":"1 47552U 21009E   22190.61011000 -.00000703  00000-0 -28286-4 0  9990","RCS_SIZE":"LARGE","MEAN_MOTION_DDOT":"0.0000000000000","COUNTRY_CODE":"US","MEAN_MOTION":"15.06402785","MEAN_ANOMALY":"291.0026","FILE":"3510681"},{"EPOCH":"2022-07-09T16:22:02.929440","TLE_LINE2":"2 47554  53.0535 282.6605 0001264  67.2931 292.8192 15.06397674 78835","INCLINATION":"53.0535","EPHEMERIS_TYPE":"0","PERIOD":"95.592","ARG_OF_PERICENTER":"67.2931","GP_ID":"207782971","PERIAPSIS":"546.345","CENTER_NAME":"EARTH","REV_AT_EPOCH":"7883","REF_FRAME":"TEME","APOAPSIS":"548.096","RA_OF_ASC_NODE":"282.6605","BSTAR":"-0.00010243000000","DECAY_DATE":null,"LAUNCH_DATE":"2021-02-04","SEMIMAJOR_AXIS":"6925.356","MEAN_MOTION_DOT":"-0.00001807","CLASSIFICATION_TYPE":"U","RCS_SIZE":"LARGE","MEAN_MOTION_DDOT":"0.0000000000000","TLE_LINE1":"1 47554U 21009G   22190.68197835 -.00001807  00000-0 -10243-3 0  9999","MEAN_ANOMALY":"292.8192","FILE":"3510681","COUNTRY_CODE":"US","MEAN_MOTION":"15.06397674","NORAD_CAT_ID":"47554","ELEMENT_SET_NO":"999","OBJECT_ID":"2021-009G","SITE":"AFETR","TIME_SYSTEM":"UTC","OBJECT_TYPE":"PAYLOAD","OBJECT_NAME":"STARLINK-1953","MEAN_ELEMENT_THEORY":"SGP4","ECCENTRICITY":"0.00012640"},{"APOAPSIS":"548.165","REF_FRAME":"TEME","PERIAPSIS":"546.287","CENTER_NAME":"EARTH","REV_AT_EPOCH":"7897","ARG_OF_PERICENTER":"68.8428","GP_ID":"207784222","EPOCH":"2022-07-09T15:46:13.566144","TLE_LINE2":"2 47555  53.0539 272.7637 0001356  68.8428 291.2706 15.06396010 78977","INCLINATION":"53.0539","PERIOD":"95.592","EPHEMERIS_TYPE":"0","MEAN_MOTION_DOT":"-0.00002322","CLASSIFICATION_TYPE":"U","SEMIMAJOR_AXIS":"6925.361","LAUNCH_DATE":"2021-02-04","BSTAR":"-0.00013703000000","DECAY_DATE":null,"RA_OF_ASC_NODE":"272.7637","ELEMENT_SET_NO":"999","NORAD_CAT_ID":"47555","MEAN_ANOMALY":"291.2706","FILE":"3510681","COUNTRY_CODE":"US","MEAN_MOTION":"15.06396010","RCS_SIZE":"LARGE","MEAN_MOTION_DDOT":"0.0000000000000","TLE_LINE1":"1 47555U 21009H   22190.65710146 -.00002322  00000-0 -13703-3 0  9990","ECCENTRICITY":"0.00013560","MEAN_ELEMENT_THEORY":"SGP4","TIME_SYSTEM":"UTC","OBJECT_TYPE":"PAYLOAD","OBJECT_NAME":"STARLINK-1954","SITE":"AFETR","OBJECT_ID":"2021-009H"},{"REF_FRAME":"TEME","APOAPSIS":"548.329","CENTER_NAME":"EARTH","REV_AT_EPOCH":"7867","PERIAPSIS":"546.110","GP_ID":"207731476","ARG_OF_PERICENTER":"65.8552","PERIOD":"95.592","EPHEMERIS_TYPE":"0","EPOCH":"2022-07-09T13:25:34.106592","INCLINATION":"53.0557","TLE_LINE2":"2 47556  53.0557 293.2173 0001602  65.8552 294.2604 15.06397955 78676","CLASSIFICATION_TYPE":"U","MEAN_MOTION_DOT":"-0.00002418","LAUNCH_DATE":"2021-02-04","SEMIMAJOR_AXIS":"6925.355","DECAY_DATE":null,"BSTAR":"-0.00014348000000","RA_OF_ASC_NODE":"293.2173","ELEMENT_SET_NO":"999","NORAD_CAT_ID":"47556","COUNTRY_CODE":"US","MEAN_MOTION":"15.06397955","MEAN_ANOMALY":"294.2604","FILE":"3510582","TLE_LINE1":"1 47556U 21009J   22190.55942253 -.00002418  00000-0 -14348-3 0  9998","RCS_SIZE":"LARGE","MEAN_MOTION_DDOT":"0.0000000000000","ECCENTRICITY":"0.00016020","MEAN_ELEMENT_THEORY":"SGP4","OBJECT_NAME":"STARLINK-1955","TIME_SYSTEM":"UTC","OBJECT_TYPE":"PAYLOAD","SITE":"AFETR","OBJECT_ID":"2021-009J"},{"RCS_SIZE":"LARGE","MEAN_MOTION_DDOT":"0.0000000000000","TLE_LINE1":"1 47557U 21009K   22190.58890733 -.00002376  00000-0 -14072-3 0  9994","MEAN_ANOMALY":"296.3696","FILE":"3510681","MEAN_MOTION":"15.06393314","COUNTRY_CODE":"US","NORAD_CAT_ID":"47557","ELEMENT_SET_NO":"999","OBJECT_ID":"2021-009K","SITE":"AFETR","TIME_SYSTEM":"UTC","OBJECT_TYPE":"PAYLOAD","OBJECT_NAME":"STARLINK-1956","MEAN_ELEMENT_THEORY":"SGP4","ECCENTRICITY":"0.00014770","EPOCH":"2022-07-09T14:08:01.593312","TLE_LINE2":"2 47557  53.0539 293.0703 0001477  63.7445 296.3696 15.06393314 78682","INCLINATION":"53.0539","PERIOD":"95.593","EPHEMERIS_TYPE":"0","ARG_OF_PERICENTER":"63.7445","GP_ID":"207783221","PERIAPSIS":"546.211","CENTER_NAME":"EARTH","REV_AT_EPOCH":"7868","APOAPSIS":"548.257","REF_FRAME":"TEME","RA_OF_ASC_NODE":"293.0703","BSTAR":"-0.00014072000000","DECAY_DATE":null,"SEMIMAJOR_AXIS":"6925.369","LAUNCH_DATE":"2021-02-04","MEAN_MOTION_DOT":"-0.00002376","CLASSIFICATION_TYPE":"U"},{"TLE_LINE1":"1 47558U 21009L   22190.63590196 -.00000724  00000-0 -29698-4 0  9997","MEAN_MOTION_DDOT":"0.0000000000000","RCS_SIZE":"LARGE","MEAN_MOTION":"15.06405619","COUNTRY_CODE":"US","FILE":"3510681","MEAN_ANOMALY":"303.7358","NORAD_CAT_ID":"47558","ELEMENT_SET_NO":"999","OBJECT_ID":"2021-009L","SITE":"AFETR","OBJECT_NAME":"STARLINK-1957","OBJECT_TYPE":"PAYLOAD","TIME_SYSTEM":"UTC","MEAN_ELEMENT_THEORY":"SGP4","ECCENTRICITY":"0.00017920","PERIOD":"95.592","EPHEMERIS_TYPE":"0","TLE_LINE2":"2 47558  53.0543 262.8750 0001792  56.3801 303.7358 15.06405619 79106","INCLINATION":"53.0543","EPOCH":"2022-07-09T15:15:41.929344","GP_ID":"207783471","ARG_OF_PERICENTER":"56.3801","REV_AT_EPOCH":"7910","CENTER_NAME":"EARTH","PERIAPSIS":"545.955","APOAPSIS":"548.437","REF_FRAME":"TEME","RA_OF_ASC_NODE":"262.8750","DECAY_DATE":null,"BSTAR":"-0.00002969800000","LAUNCH_DATE":"2021-02-04","SEMIMAJOR_AXIS":"6925.331","CLASSIFICATION_TYPE":"U","MEAN_MOTION_DOT":"-0.00000724"},{"ARG_OF_PERICENTER":"58.1595","GP_ID":"207783723","INCLINATION":"53.0540","TLE_LINE2":"2 47559  53.0540 252.7332 0001442  58.1595 301.9534 15.06398930 79259","EPOCH":"2022-07-09T15:59:29.277312","PERIOD":"95.592","EPHEMERIS_TYPE":"0","REF_FRAME":"TEME","APOAPSIS":"548.215","PERIAPSIS":"546.218","REV_AT_EPOCH":"7925","CENTER_NAME":"EARTH","BSTAR":"-0.00048787000000","DECAY_DATE":null,"RA_OF_ASC_NODE":"252.7332","MEAN_MOTION_DOT":"-0.00007541","CLASSIFICATION_TYPE":"U","SEMIMAJOR_AXIS":"6925.352","LAUNCH_DATE":"2021-02-04","FILE":"3510681","MEAN_ANOMALY":"301.9534","MEAN_MOTION":"15.06398930","COUNTRY_CODE":"US","MEAN_MOTION_DDOT":"0.0000000000000","RCS_SIZE":"LARGE","TLE_LINE1":"1 47559U 21009M   22190.66631108 -.00007541  00000-0 -48787-3 0  9993","ELEMENT_SET_NO":"999","NORAD_CAT_ID":"47559","OBJECT_TYPE":"PAYLOAD","TIME_SYSTEM":"UTC","OBJECT_NAME":"STARLINK-1958","SITE":"AFETR","OBJECT_ID":"2021-009M","ECCENTRICITY":"0.00014420","MEAN_ELEMENT_THEORY":"SGP4"},{"RA_OF_ASC_NODE":"253.6468","DECAY_DATE":null,"BSTAR":"-0.00002553400000","LAUNCH_DATE":"2021-02-04","SEMIMAJOR_AXIS":"6925.347","CLASSIFICATION_TYPE":"U","MEAN_MOTION_DOT":"-0.00000662","EPHEMERIS_TYPE":"0","PERIOD":"95.592","EPOCH":"2022-07-09T11:00:54.245088","TLE_LINE2":"2 47560  53.0521 253.6468 0001413  70.5709 289.5432 15.06400479 79220","INCLINATION":"53.0521","GP_ID":"207731976","ARG_OF_PERICENTER":"70.5709","CENTER_NAME":"EARTH","REV_AT_EPOCH":"7922","PERIAPSIS":"546.234","REF_FRAME":"TEME","APOAPSIS":"548.191","SITE":"AFETR","OBJECT_ID":"2021-009N","OBJECT_NAME":"STARLINK-1959","TIME_SYSTEM":"UTC","OBJECT_TYPE":"PAYLOAD","MEAN_ELEMENT_THEORY":"SGP4","ECCENTRICITY":"0.00014130","TLE_LINE1":"1 47560U 21009N   22190.45896117 -.00000662  00000-0 -25534-4 0  9998","RCS_SIZE":"LARGE","MEAN_MOTION_DDOT":"0.0000000000000","MEAN_MOTION":"15.06400479","COUNTRY_CODE":"US","MEAN_ANOMALY":"289.5432","FILE":"3510582","NORAD_CAT_ID":"47560","ELEMENT_SET_NO":"999"},{"RA_OF_ASC_NODE":"273.4277","DECAY_DATE":null,"BSTAR":"-0.00005743500000","LAUNCH_DATE":"2021-02-04","SEMIMAJOR_AXIS":"6925.339","CLASSIFICATION_TYPE":"U","MEAN_MOTION_DOT":"-0.00001137","PERIOD":"95.592","EPHEMERIS_TYPE":"0","EPOCH":"2022-07-09T12:19:12.900864","TLE_LINE2":"2 47561  53.0539 273.4277 0001026  92.1875 267.9231 15.06403184 78954","INCLINATION":"53.0539","GP_ID":"207731727","ARG_OF_PERICENTER":"92.1875","CENTER_NAME":"EARTH","REV_AT_EPOCH":"7895","PERIAPSIS":"546.493","REF_FRAME":"TEME","APOAPSIS":"547.914","OBJECT_ID":"2021-009P","SITE":"AFETR","OBJECT_NAME":"STARLINK-1960","TIME_SYSTEM":"UTC","OBJECT_TYPE":"PAYLOAD","MEAN_ELEMENT_THEORY":"SGP4","ECCENTRICITY":"0.00010260","TLE_LINE1":"1 47561U 21009P   22190.51334376 -.00001137  00000-0 -57435-4 0  9993","RCS_SIZE":"LARGE","MEAN_MOTION_DDOT":"0.0000000000000","COUNTRY_CODE":"US","MEAN_MOTION":"15.06403184","MEAN_ANOMALY":"267.9231","FILE":"3510582","NORAD_CAT_ID":"47561","ELEMENT_SET_NO":"999"}];
